[{"OBJECT_NAME":"YAOGAN-2","OBJECT_ID":"2007-019A","EPOCH":"2026-03-09T14:35:50.831808","MEAN_MOTION":14.82510137,"ECCENTRICITY":0.001955,"INCLINATION":98.2784,"RA_OF_ASC_NODE":285.8374,"ARG_OF_PERICENTER":233.2135,"MEAN_ANOMALY":126.7283,"EPHEMERIS_TYPE":0,"CLASSIFICATION_TYPE":"U","NORAD_CAT_ID":31490,"ELEMENT_SET_NO":999,"REV_AT_EPOCH":1286,"BSTAR":0.00014435,"MEAN_MOTION_DOT":1.104e-5,"MEAN_MOTION_DDOT":0},{"OBJECT_NAME":"COSMOS 2251 DEB","OBJECT_ID":"1993-036BTY","EPOCH":"2026-02-24T18:30:19.329120","MEAN_MOTION":14.71359668,"ECCENTRICITY":0.00577032,"INCLINATION":74.0411,"RA_OF_ASC_NODE":81.3577,"ARG_OF_PERICENTER":169.1149,"MEAN_ANOMALY":309.3953,"EPHEMERIS_TYPE":0,"CLASSIFICATION_TYPE":"U","NORAD_CAT_ID":39109,"ELEMENT_SET_NO":999,"REV_AT_EPOCH":66262,"BSTAR":0.00037457225,"MEAN_MOTION_DOT":2.345e-5,"MEAN_MOTION_DDOT":0}]
